COMMENT,ORIGINATOR,NORAD_CAT_ID,OBJECT_NAME,OBJECT_TYPE,CLASSIFICATION_TYPE,INTLDES,EPOCH,EPOCH_MICROSECONDS,MEAN_MOTION,ECCENTRICITY,INCLINATION,RA_OF_ASC_NODE,ARG_OF_PERICENTER,MEAN_ANOMALY,EPHEMERIS_TYPE,ELEMENT_SET_NO,REV_AT_EPOCH,BSTAR,MEAN_MOTION_DOT,MEAN_MOTION_DDOT,FILE,TLE_LINE0,TLE_LINE1,TLE_LINE2,OBJECT_ID,OBJECT_NUMBER,SEMIMAJOR_AXIS,PERIOD,APOGEE,PERIGEE,DECAYED
"GENERATED VIA SPACETRACK.ORG API","18 SPCS","55097","SPACEBEE-160","PAYLOAD","U","23001CS","2023-03-06 04:04:36","329952","15.15877183","0.0015955","97.4922","126.4044","5.3043","354.8356","0","999","947","0.0016763","0.00032233","0","3853141","0 SPACEBEE-160","1 55097U 23001CS  23065.16986493  .00032233  00000-0  16763-2 0  9992","2 55097  97.4922 126.4044 0015955   5.3043 354.8356 15.15877183  9472","2023-001CS","55097","6896.454","94.995","529.322","507.315","0"
"GENERATED VIA SPACETRACK.ORG API","18 SPCS","55097","SPACEBEE-160","PAYLOAD","U","23001CS","2023-03-07 03:50:23","665632","15.15939972","0.0015752","97.4907","127.3805","1.4785","358.6491","0","999","962","0.0016692","0.00032151","0","3854072","0 SPACEBEE-160","1 55097U 23001CS  23066.15999613  .00032151  00000-0  16692-2 0  9990","2 55097  97.4907 127.3805 0015752   1.4785 358.6491 15.15939972  9629","2023-001CS","55097","6896.263","94.991","528.991","507.265","0"
"GENERATED VIA SPACETRACK.ORG API","18 SPCS","55097","SPACEBEE-160","PAYLOAD","U","23001CS","2023-03-08 02:01:04","769472","15.15996609","0.0016048","97.4903","128.2925","358.3247","1.7929","0","999","976","0.0014535","0.0002802","0","3854715","0 SPACEBEE-160","1 55097U 23001CS  23067.08408298  .00028020  00000-0  14535-2 0  9991","2 55097  97.4903 128.2925 0016048 358.3247   1.7929 15.15996609  9761","2023-001CS","55097","6896.092","94.987","529.023","506.890","0"
"GENERATED VIA SPACETRACK.ORG API","18 SPCS","55097","SPACEBEE-160","PAYLOAD","U","23001CS","2023-03-08 02:01:04","769472","15.15996609","0.0016048","97.4903","128.2925","358.3247","1.7929","0","999","976","0.0014535","0.0002802","0","3855077","0 SPACEBEE-160","1 55097U 23001CS  23067.08408298  .00028020  00000-0  14535-2 0  9991","2 55097  97.4903 128.2925 0016048 358.3247   1.7929 15.15996609  9761","2023-001CS","55097","6896.092","94.987","529.023","506.890","0"
"GENERATED VIA SPACETRACK.ORG API","18 SPCS","55097","SPACEBEE-160","PAYLOAD","U","23001CS","2023-03-09 16:02:08","293920","15.16101223","0.0015912","97.488","129.8545","352.3048","7.7938","0","999","1000","0.0019063","0.00036922","0","3855951","0 SPACEBEE-160","1 55097U 23001CS  23068.66815155  .00036922  00000-0  19063-2 0  9991","2 55097  97.4880 129.8545 0015912 352.3048   7.7938 15.16101223 10008","2023-001CS","55097","6895.774","94.980","528.612","506.667","0"
"GENERATED VIA SPACETRACK.ORG API","18 SPCS","55097","SPACEBEE-160","PAYLOAD","U","23001CS","2023-03-10 03:07:24","996288","15.16132087","0.0016039","97.4886","130.31","351.0549","9.0395","0","999","1007","0.0017527","0.00033959","0","3856975","0 SPACEBEE-160","1 55097U 23001CS  23069.13015042  .00033959  00000-0  17527-2 0  9991","2 55097  97.4886 130.3100 0016039 351.0549   9.0395 15.16132087 10072","2023-001CS","55097","6895.681","94.979","528.606","506.486","0"
"GENERATED VIA SPACETRACK.ORG API","18 SPCS","55097","SPACEBEE-160","PAYLOAD","U","23001CS","2023-03-11 02:52:58","514880","15.16183839","0.0015828","97.4883","131.2875","347.113","12.9696","0","999","1022","0.0014748","0.00028583","0","3857301","0 SPACEBEE-160","1 55097U 23001CS  23070.12012170  .00028583  00000-0  14748-2 0  9990","2 55097  97.4883 131.2875 0015828 347.1130  12.9696 15.16183839 10220","2023-001CS","55097","6895.524","94.975","528.303","506.475","0"
"GENERATED VIA SPACETRACK.ORG API","18 SPCS","55097","SPACEBEE-160","PAYLOAD","U","23001CS","2023-03-11 02:52:58","514880","15.16183839","0.0015828","97.4883","131.2875","347.113","12.9696","0","999","1022","0.0014748","0.00028583","0","3857581","0 SPACEBEE-160","1 55097U 23001CS  23070.12012170  .00028583  00000-0  14748-2 0  9990","2 55097  97.4883 131.2875 0015828 347.1130  12.9696 15.16183839 10220","2023-001CS","55097","6895.524","94.975","528.303","506.475","0"
"GENERATED VIA SPACETRACK.ORG API","18 SPCS","55097","SPACEBEE-160","PAYLOAD","U","23001CS","2023-03-12 02:38:29","532192","15.16222323","0.0015725","97.4884","132.2652","343.7648","16.3079","0","999","1037","0.0011382","0.00022048","0","3858230","0 SPACEBEE-160","1 55097U 23001CS  23071.11006403  .00022048  00000-0  11382-2 0  9993","2 55097  97.4884 132.2652 0015725 343.7648  16.3079 15.16222323 10378","2023-001CS","55097","6895.407","94.973","528.115","506.429","0"
"GENERATED VIA SPACETRACK.ORG API","18 SPCS","55097","SPACEBEE-160","PAYLOAD","U","23001CS","2023-03-12 04:13:31","545984","15.16226283","0.0015759","97.489","132.3304","343.524","16.5479","0","999","1038","0.0012444","0.00024121","0","3858534","0 SPACEBEE-160","1 55097U 23001CS  23071.17605956  .00024121  00000-0  12444-2 0  9991","2 55097  97.4890 132.3304 0015759 343.5240  16.5479 15.16226283 10389","2023-001CS","55097","6895.395","94.973","528.127","506.394","0"
"GENERATED VIA SPACETRACK.ORG API","18 SPCS","55097","SPACEBEE-160","PAYLOAD","U","23001CS","2023-03-12 16:53:47","25600","15.16249253","0.0015926","97.4897","132.8496","340.5297","19.5326","0","999","1046","0.0011163","0.00021639","0","3859425","0 SPACEBEE-160","1 55097U 23001CS  23071.70401650  .00021639  00000-0  11163-2 0  9993","2 55097  97.4897 132.8496 0015926 340.5297  19.5326 15.16249253 10463","2023-001CS","55097","6895.326","94.971","528.172","506.209","0"
"GENERATED VIA SPACETRACK.ORG API","18 SPCS","55097","SPACEBEE-160","PAYLOAD","U","23001CS","2023-03-12 17:25:08","51232","15.1624639","0.0016202","97.4855","132.871","340.5122","138.3123","0","999","1046","0.0011085","0.00021487","0","3859578","0 SPACEBEE-160","1 55097U 23001CS  23071.72578763  .00021487  00000-0  11085-2 0  9999","2 55097  97.4855 132.8710 0016202 340.5122 138.3123 15.16246390 10465","2023-001CS","55097","6895.334","94.971","528.371","506.027","0"
"GENERATED VIA SPACETRACK.ORG API","18 SPCS","55097","SPACEBEE-160","PAYLOAD","U","23001CS","2023-03-14 03:44:27","309696","15.16323637","0.0015208","97.4893","134.2863","336.3524","23.7008","0","999","1068","0.0011943","0.00023204","0","3860612","0 SPACEBEE-160","1 55097U 23001CS  23073.15587164  .00023204  00000-0  11943-2 0  9995","2 55097  97.4893 134.2863 0015208 336.3524  23.7008 15.16323637 10689","2023-001CS","55097","6895.100","94.967","527.451","506.479","0"
"GENERATED VIA SPACETRACK.ORG API","18 SPCS","55097","SPACEBEE-160","PAYLOAD","U","23001CS","2023-03-14 03:44:27","309696","15.16323637","0.0015208","97.4893","134.2863","336.3524","23.7008","0","999","1068","0.0011943","0.00023204","0","3860643","0 SPACEBEE-160","1 55097U 23001CS  23073.15587164  .00023204  00000-0  11943-2 0  9995","2 55097  97.4893 134.2863 0015208 336.3524  23.7008 15.16323637 10689","2023-001CS","55097","6895.100","94.967","527.451","506.479","0"
"GENERATED VIA SPACETRACK.ORG API","18 SPCS","55097","SPACEBEE-160","PAYLOAD","U","23001CS","2023-03-15 01:54:48","605472","15.16369073","0.0015146","97.4892","135.1985","332.7774","27.2664","0","999","1082","0.0013028","0.00025357","0","3861350","0 SPACEBEE-160","1 55097U 23001CS  23074.07972923  .00025357  00000-0  13028-2 0  9995","2 55097  97.4892 135.1985 0015146 332.7774  27.2664 15.16369073 10828","2023-001CS","55097","6894.962","94.964","527.270","506.384","0"
"GENERATED VIA SPACETRACK.ORG API","18 SPCS","55097","SPACEBEE-160","PAYLOAD","U","23001CS","2023-03-16 03:15:10","441728","15.16470881","0.0013214","97.4816","136.2413","339.8248","20.2461","0","999","1098","0.0014781","0.00028856","0","3862257","0 SPACEBEE-160","1 55097U 23001CS  23075.13553752  .00028856  00000-0  14781-2 0  9992","2 55097  97.4816 136.2413 0013214 339.8248  20.2461 15.16470881 10985","2023-001CS","55097","6894.654","94.957","525.629","507.408","0"
"GENERATED VIA SPACETRACK.ORG API","18 SPCS","55097","SPACEBEE-160","PAYLOAD","U","23001CS","2023-03-16 03:15:10","441728","15.16470881","0.0013214","97.4816","136.2413","339.8248","20.2461","0","999","1098","0.0014781","0.00028856","0","3862295","0 SPACEBEE-160","1 55097U 23001CS  23075.13553752  .00028856  00000-0  14781-2 0  9992","2 55097  97.4816 136.2413 0013214 339.8248  20.2461 15.16470881 10985","2023-001CS","55097","6894.654","94.957","525.629","507.408","0"
"GENERATED VIA SPACETRACK.ORG API","18 SPCS","55097","SPACEBEE-160","PAYLOAD","U","23001CS","2023-03-17 03:00:27","914976","15.16473535","0.0015134","97.4895","137.2176","325.6586","34.3667","0","999","1113","0.0013351","0.00026067","0","3862949","0 SPACEBEE-160","1 55097U 23001CS  23076.12532309  .00026067  00000-0  13351-2 0  9991","2 55097  97.4895 137.2176 0015134 325.6586  34.3667 15.16473535 11131","2023-001CS","55097","6894.646","94.957","526.945","506.076","0"
"GENERATED VIA SPACETRACK.ORG API","18 SPCS","55097","SPACEBEE-160","PAYLOAD","U","23001CS","2023-03-17 03:00:27","914976","15.16473535","0.0015134","97.4895","137.2176","325.6586","34.3667","0","999","1113","0.0013351","0.00026067","0","3863278","0 SPACEBEE-160","1 55097U 23001CS  23076.12532309  .00026067  00000-0  13351-2 0  9991","2 55097  97.4895 137.2176 0015134 325.6586  34.3667 15.16473535 11131","2023-001CS","55097","6894.646","94.957","526.945","506.076","0"
"GENERATED VIA SPACETRACK.ORG API","18 SPCS","55097","SPACEBEE-160","PAYLOAD","U","23001CS","2023-03-18 10:40:45","722496","15.16520189","0.0016142","97.4866","138.5188","319.4028","40.6","0","999","1133","0.00093567","0.00018261","0","3864207","0 SPACEBEE-160","1 55097U 23001CS  23077.44497364  .00018261  00000-0  93567-3 0  9993","2 55097  97.4866 138.5188 0016142 319.4028  40.6000 15.16520189 11339","2023-001CS","55097","6894.504","94.954","527.498","505.240","0"
